BEIDOU 3 (C01)          
1 36287U 10001A   21241.58374285 -.00000284  00000-0  00000-0 0  9995
2 36287   1.9878  49.2071 0005907  91.2159 188.1673  1.00273995 42581
BEIDOU 5 (C06)          
1 36828U 10036A   21241.54014630 -.00000122  00000-0  00000-0 0  9996
2 36828  54.1838 178.9190 0023270 183.4918 276.8170  1.00282300 40653
BEIDOU 6 (C04)          
1 37210U 10057A   21241.58766766 -.00000115  00000-0  00000-0 0  9995
2 37210   0.9631  54.6540 0006474 129.7355 165.1963  1.00271318 39704
BEIDOU 7 (C07)          
1 37256U 10068A   21241.57702706 -.00000177  00000-0  00000-0 0  9998
2 37256  50.7352 293.1332 0019929 184.0136 175.0302  1.00308113 39213
BEIDOU 8 (C08)          
1 37384U 11013A   21239.89775618 -.00000175  00000-0  00000-0 0  9993
2 37384  59.8727  57.1818 0054957 206.4312 154.8119  1.00286000 38088
BEIDOU 9 (C09)          
1 37763U 11038A   21241.22760862 -.00000062  00000-0  00000-0 0  9991
2 37763  54.4708 181.3769 0086696 226.9403 103.0751  1.00294447 37066
BEIDOU 10 (C10)         
1 37948U 11073A   21241.05494097 -.00000138  00000-0  00000-0 0  9994
2 37948  50.8375 292.7620 0078501 216.5205 304.3090  1.00276921 35826
BEIDOU 11 (C05)         
1 38091U 12008A   21241.60710582  .00000053  00000-0  00000-0 0  9999
2 38091   1.7057  69.4692 0005485 342.8289 202.9663  1.00273685 34903
BEIDOU 12 (C11)         
1 38250U 12018A   21241.42207473 -.00000105  00000-0  00000-0 0  9996
2 38250  56.7507   3.2056 0021637 243.8015  12.5648  1.86234336 63649
BEIDOU 13 (C12)         
1 38251U 12018B   21241.35885847 -.00000106  00000-0  00000-0 0  9997
2 38251  56.6723   2.5520 0012504 243.0396  15.3032  1.86234105 63646
BEIDOU 15 (C14)         
1 38775U 12050B   21241.16821628 -.00000037  00000-0  00000-0 0  9993
2 38775  55.2405 121.5334 0013995 325.7319   2.1595  1.86231607 61013
BEIDOU 16 (C02)         
1 38953U 12059A   21241.61540575 -.00000179  00000-0  00000-0 0  9996
2 38953   1.2698  83.9647 0010147 297.2540 262.4380  1.00270444 32478
BEIDOU 17 (C31)         
1 40549U 15019A   21241.05854281 -.00000151  00000-0  00000-0 0  9999
2 40549  52.3756 316.1522 0040739 191.1465 302.5807  1.00250681 23500
BEIDOU 18 (C57)         
1 40748U 15037A   21241.61044082 -.00000107  00000-0  00000-0 0  9993
2 40748  55.9316   1.5858 0002574  54.8780 281.9472  1.86233445 41476
BEIDOU 19 (C58)         
1 40749U 15037B   21240.31969698 -.00000109  00000-0  00000-0 0  9991
2 40749  55.9354   1.6186 0002169 321.4776   5.7480  1.86232106 41443
BEIDOU 20 (C18)         
1 40938U 15053A   21241.42177235 -.00000101  00000-0  00000-0 0  9992
2 40938  51.9515 279.2259 0048653 195.0882 111.4544  1.00267194 21774
BEIDOU IGSO-6 (C13)     
1 41434U 16021A   21241.22590955 -.00000120  00000-0  00000-0 0  9997
2 41434  57.6678  55.8735 0039234 210.3010 245.6838  1.00255242 19904
BEIDOU-2 G7 (C03)       
1 41586U 16037A   21241.50597125 -.00000358  00000-0  00000-0 0  9992
2 41586   1.8523  68.6160 0007829  17.6696 184.3273  1.00270817 19210
BEIDOU-3 M1 (C19)       
1 43001U 17069A   21241.29770480 -.00000037  00000-0  00000-0 0  9999
2 43001  55.3945 121.4895 0009396 296.0909 274.5863  1.86231853 25956
BEIDOU-3 M2 (C20)       
1 43002U 17069B   21241.36239013 -.00000037  00000-0  00000-0 0  9990
2 43002  55.3933 121.5227 0008100 320.1115 337.2962  1.86231364 25947
BEIDOU-3 M3 (C27)       
1 43107U 18003A   21241.16184398 -.00000108  00000-0  00000-0 0  9997
2 43107  55.3757   2.6488 0004759  65.5398 263.3205  1.86232487 24703
BEIDOU-3 M4 (C28)       
1 43108U 18003B   21241.49120318 -.00000108  00000-0  00000-0 0  9996
2 43108  55.3703   2.6265 0002951 221.3470  13.5116  1.86232511 24718
BEIDOU-3 M5 (C21)       
1 43207U 18018A   21241.05121824 -.00000037  00000-0  00000+0 0  9997
2 43207  55.3516 121.6213 0006114 345.4626  14.5939  1.86231754 24094
BEIDOU-3 M6 (C22)       
1 43208U 18018B   21240.04403762 -.00000032  00000-0  00000+0 0  9995
2 43208  55.3517 121.6599 0007589 309.3560  50.6545  1.86231595 24071
BEIDOU-3 M7 (C29)       
1 43245U 18029A   21241.32673333 -.00000109  00000-0  00000-0 0  9999
2 43245  55.3036   0.4303 0001109 133.4409 216.2111  1.86232639 23242
BEIDOU-3 M8 (C30)       
1 43246U 18029B   21241.08668813 -.00000109  00000-0  10000-3 0  9994
2 43246  55.3005   0.4688 0003010   0.3191 234.6471  1.86233101 23235
BEIDOU IGSO-7 (C16)     
1 43539U 18057A   21241.02988784 -.00000125  00000-0  00000+0 0  9999
2 43539  55.0642 178.3041 0041407 225.0318  54.5329  1.00299144 11571
BEIDOU-3 M9 (C23)       
1 43581U 18062A   21241.50195921  .00000064  00000-0  00000-0 0  9990
2 43581  54.3767 242.0899 0006276 267.1947  96.4387  1.86231858 20995
BEIDOU-3 M10 (C24)      
1 43582U 18062B   21240.62506986  .00000055  00000-0  00000-0 0  9990
2 43582  54.3753 242.1096 0005001 326.0727 261.0499  1.86232170 20977
BEIDOU-3 M11 (C25)      
1 43602U 18067A   21241.30065978  .00000063  00000-0  00000-0 0  9994
2 43602  54.4529 240.6754 0006601 349.5224  12.6468  1.86231600 20484
BEIDOU-3 M12 (C26)      
1 43603U 18067B   21241.43453961  .00000064  00000-0  00000-0 0  9993
2 43603  54.4497 240.6378 0004250 330.7819  31.5936  1.86231523 20508
BEIDOU-3 M13 (C32)      
1 43622U 18072A   21241.30029337 -.00000037  00000-0  00000-0 0  9993
2 43622  55.3182 121.1781 0005928 294.1105   8.2872  1.86231975 20001
BEIDOU-3 M14 (C33)      
1 43623U 18072B   21241.49764656 -.00000038  00000-0  00000-0 0  9995
2 43623  55.3204 121.1635 0004724 325.0485 199.8998  1.86231974 20019
BEIDOU-3 M15 (C34)      
1 43647U 18078A   21241.41446537 -.00000109  00000-0  10000-3 0  9997
2 43647  55.1978   0.6108 0005281   2.7595   1.6377  1.86233053 19522
BEIDOU-3 M16 (C35)      
1 43648U 18078B   21241.55954713 -.00000109  00000-0  00000-0 0  9999
2 43648  55.1936   0.6129 0003669  24.8862 345.1123  1.86232305 19546
BEIDOU-3 G1 (C59)       
1 43683U 18085A   21241.54785389 -.00000282  00000-0  00000-0 0  9998
2 43683   0.9571 217.6879 0004535  20.4120  77.1086  1.00270604 10486
BEIDOU-3 M17 (C36)      
1 43706U 18093A   21241.16088725  .00000061  00000-0  00000-0 0  9995
2 43706  54.4572 241.9651 0011756 269.8374  90.0385  1.86232078 18894
BEIDOU-3 M18 (C37)      
1 43707U 18093B   21240.76410580  .00000056  00000-0  00000-0 0  9993
2 43707  54.4574 241.9701 0010012 288.8284 255.9414  1.86232111 18879
BEIDOU-3 IGSO-1 (C38)   
1 44204U 19023A   21239.40741829 -.00000198  00000-0  00000-0 0  9990
2 44204  56.1227  56.1440 0020115 187.7976 352.6540  1.00274150  8769
BEIDOU-2 G8             
1 44231U 19027A   21241.64352317 -.00000251  00000-0  00000-0 0  9993
2 44231   0.2745  25.8496 0006921 170.2155 158.1634  1.00268957  8494
BEIDOU-3 IGSO-2 (C39)   
1 44337U 19035A   21241.02663451 -.00000136  00000-0  00000-0 0  9997
2 44337  55.0978 174.3439 0020132 184.6920 106.0232  1.00290548  8119
BEIDOU-3 M23 (C45)      
1 44542U 19061A   21240.41540311  .00000053  00000-0  10000-3 0  9996
2 44542  54.6825 242.0747 0009091 316.1911 307.5793  1.86231476 13127
BEIDOU-3 M24 (C46)      
1 44543U 19061B   21241.23411235  .00000062  00000-0  10000-3 0  9990
2 44543  54.6802 242.0170 0006820 300.0870  63.5406  1.86231704 13142
BEIDOU-3 IGSO-3         
1 44709U 19073A   21241.50212457 -.00000169  00000-0  00000-0 0  9997
2 44709  57.7281 299.4114 0020556 183.4975 153.6403  1.00295193  6874
BEIDOU-3 M21            
1 44793U 19078A   21241.41677385 -.00000109  00000-0  10000-3 0  9998
2 44793  55.0469   0.6677 0005179  11.0559 309.2302  1.86232569 12001
BEIDOU-3 M22            
1 44794U 19078B   21240.48030773 -.00000111  00000-0  00000-0 0  9998
2 44794  55.0203   0.6984 0003424  14.4225 309.1244  1.86232801 11986
BEIDOU-3 M19            
1 44864U 19090A   21241.22948692 -.00000037  00000-0  00000-0 0  9998
2 44864  55.2533 121.4071 0015619 269.2152  31.2251  1.86232013 11581
BEIDOU-3 M20            
1 44865U 19090B   21241.44762868 -.00000038  00000-0  00000-0 0  9993
2 44865  55.2559 121.4310 0014257 285.1888 251.4147  1.86231955 11568
BEIDOU-3 G2             
1 45344U 20017A   21241.57173372 -.00000142  00000-0  00000-0 0  9993
2 45344   2.3383 338.9828 0004089 157.3531 127.5087  1.00271189  5697
BEIDOU-3 G3             
1 45807U 20040A   21241.61100253 -.00000356  00000-0  00000-0 0  9993
2 45807   2.1163 298.8804 0008274 335.9320  33.6603  1.00276563  4515
